[{"OBJECT_NAME":"STARLINK-6040","OBJECT_ID":"2023-078AU","EPOCH":"2026-03-09T21:18:16.576704","MEAN_MOTION":14.98329487,"ECCENTRICITY":0.00025315,"INCLINATION":70.001,"RA_OF_ASC_NODE":343.8081,"ARG_OF_PERICENTER":263.0396,"MEAN_ANOMALY":97.0475,"EPHEMERIS_TYPE":0,"CLASSIFICATION_TYPE":"U","NORAD_CAT_ID":56809,"ELEMENT_SET_NO":999,"REV_AT_EPOCH":15271,"BSTAR":-4.3575538e-5,"MEAN_MOTION_DOT":-6.13e-6,"MEAN_MOTION_DDOT":0},{"OBJECT_NAME":"CZ-6A DEB","OBJECT_ID":"2024-140GC","EPOCH":"2026-03-09T13:34:49.028736","MEAN_MOTION":14.75009559,"ECCENTRICITY":0.0165561,"INCLINATION":88.9161,"RA_OF_ASC_NODE":274.3109,"ARG_OF_PERICENTER":173.9196,"MEAN_ANOMALY":186.409,"EPHEMERIS_TYPE":0,"CLASSIFICATION_TYPE":"U","NORAD_CAT_ID":60801,"ELEMENT_SET_NO":999,"REV_AT_EPOCH":8449,"BSTAR":0.00072752,"MEAN_MOTION_DOT":6.141e-5,"MEAN_MOTION_DDOT":0}]
